BEIDOU-3S IGSO-1S       
1 40549U 15019A   26183.80025122 -.00000190  00000+0  00000+0 0  9997
2 40549  49.1798 295.2769 0076860 219.1125 144.2493  1.00680073 41232
NAVSTAR 74 (USA 262)    
1 40730U 15033A   26201.62711115 -.00000033  00000+0  00000+0 0  9996
2 40730  53.9572 265.7061 0115459  30.2916 330.4391  2.00554614 80660
BEIDOU-3S M2S           
1 40748U 15037A   26201.61428065 -.00000100  00000+0  00000+0 0  9992
2 40748  54.8390 300.8947 0009586 256.5496 103.3784  1.86231898 74744
BEIDOU-3S M1S           
1 40749U 15037B   26201.28070029 -.00000099  00000+0  00000+0 0  9996
2 40749  54.8358 300.8934 0002618  62.6171 297.4444  1.86254901 74748
GSAT0206 (GALILEO 10)   
1 40890U 15045B   26201.30589843  .00000058  00000+0  00000+0 0  9998
2 40890  54.9380 220.6893 0002088 330.0131  30.0144  1.70473732 67606
GSAT-15                 
1 41028U 15065A   26201.88184672 -.00000258  00000+0  00000+0 0  9991
2 41028   0.1030 263.5234 0003563 177.9274 268.1691  1.00271852 39135
GSAT0209 (GALILEO 12)   
1 41174U 15079A   26200.88772413 -.00000039  00000+0  00000+0 0  9990
2 41174  55.8457 100.3644 0004618 358.4074   1.6290  1.70473671 65332
GSAT0208 (GALILEO 11)   
1 41175U 15079B   26201.10806135 -.00000040  00000+0  00000+0 0  9998
2 41175  55.8443 100.3553 0004268 359.9028   0.1346  1.70473574 65757
IRNSS-1E                
1 41241U 16003A   26201.59020082 -.00000317  00000+0  00000+0 0  9999
2 41241  33.3040  59.2648 0019305 176.2872  27.0964  1.00275464 38415
NAVSTAR 76 (USA 266)    
1 41328U 16007A   26201.27421160 -.00000055  00000+0  00000+0 0  9995
2 41328  55.5443  88.1473 0096648 247.5757 111.4487  2.00575239 76504
COSMOS 2514 [GLONASS-M] 
1 41330U 16008A   26201.60265593 -.00000085  00000+0  00000+0 0  9995
2 41330  64.9994 311.8597 0012484 201.8566 158.1123  2.13102623 81331
BEIDOU-2 IGSO-6         
1 41434U 16021A   26177.11016981 -.00000145  00000+0  00000+0 0  9995
2 41434  60.2385  37.9495 0057558 231.0163 137.2672  1.00258926 37578
IRNSS-1G                
1 41469U 16027A   26201.57891937 -.00000338  00000+0  00000+0 0  9993
2 41469   5.2757  96.7017 0005917  13.1561 166.5437  1.00268271 37516
GSAT0211 (GALILEO 14)   
1 41549U 16030A   26201.23161694  .00000057  00000+0  00000+0 0  9996
2 41549  55.0891 220.7852 0003443 318.9851  41.0285  1.70473740 63235
GSAT0210 (GALILEO 13)   
1 41550U 16030B   26200.90227042  .00000055  00000+0  00000+0 0  9999
2 41550  55.0878 220.7925 0004710 246.5746 113.4149  1.70473957 63222
EUTELSAT 117 WEST B     
1 41589U 16038B   26201.66647274 -.00000012  00000+0  00000+0 0  9990
2 41589   0.0056 161.4813 0000167   8.5099 251.3833  1.00270889 36996
GSAT0207 (GALILEO 15)   
1 41859U 16069A   26201.18093858 -.00000041  00000+0  00000+0 0  9996
2 41859  55.5174 100.1729 0004477 340.2934  19.7267  1.70473575 59963
GSAT0212 (GALILEO 16)   
1 41860U 16069B   26201.03433166 -.00000040  00000+0  00000+0 0  9991
2 41860  55.5153 100.1719 0004344  11.9645 348.0834  1.70473722 60217
GSAT0213 (GALILEO 17)   
1 41861U 16069C   26200.81489958 -.00000039  00000+0  00000+0 0  9995
2 41861  55.5171 100.1861 0003903 321.1021  38.9078  1.70474157 60072
GSAT0214 (GALILEO 18)   
1 41862U 16069D   26201.54777340 -.00000043  00000+0  00000+0 0  9997
2 41862  55.5160 100.1583 0003153 334.9765  25.0447  1.70473781 60211
SES-15                  
1 42709U 17026A   26201.66404606  .00000059  00000+0  00000+0 0  9993
2 42709   0.0279 322.6965 0000499 133.6853 311.9461  1.00267833  7761
QZS-2 (MICHIBIKI-2)     
1 42738U 17028A   26201.46513987 -.00000138  00000+0  00000+0 0  9997
2 42738  39.3796 242.6632 0756849 269.6615  95.8478  1.00275408  7962
COSMOS 2522 [GLONASS-M] 
1 42939U 17055A   26201.44027304  .00000084  00000+0  00000+0 0  9990
2 42939  64.0809 190.7524 0010884 240.6370 119.2556  2.13101801 68681
QZS-4 (MICHIBIKI-4)     
1 42965U 17062A   26201.71876691 -.00000359  00000+0  00000+0 0  9994
2 42965  40.0883 343.0577 0746991 268.6754  84.8963  1.00289508 32145
BEIDOU-3 M1             
1 43001U 17069A   26200.88735597 -.00000076  00000+0  00000+0 0  9995
2 43001  56.7214  62.0072 0009178 326.7417  33.2640  1.86231171 59212
BEIDOU-3 M2             
1 43002U 17069B   26200.82637238 -.00000075  00000+0  00000+0 0  9992
2 43002  56.7156  62.0460 0005934 145.8292 214.2725  1.86204093 59203
GSAT0215 (GALILEO 19)   
1 43055U 17079A   26200.27746981  .00000052  00000+0  00000+0 0  9990
2 43055  55.0670 220.6230 0003742 269.1143  90.8812  1.70474412 53533
